GLOBALSTAR M045         
1 25676U 99019A   25124.92217221 -.00000064  00000+0  26378-3 0  9993
2 25676  51.9977  68.5807 0000669  80.5337 307.0575 12.27061766188087
GLOBALSTAR M019         
1 25677U 99019B   25124.97884507 -.00000153  00000+0 -66089-3 0  9999
2 25677  51.9863 195.7470 0001444 219.8431 311.8025 12.13873322180084
GLOBALSTAR M044         
1 25678U 99019C   25125.19170449 -.00000074  00000+0  13734-3 0  9998
2 25678  51.9936 141.1376 0006228 317.5523 136.7584 11.90249523166182
GLOBALSTAR M042         
1 25679U 99019D   25125.55229584 -.00000079  00000+0  12780-3 0  9999
2 25679  51.9988 171.3143 0003088 209.2686 298.2435 12.22082190180114
GLOBALSTAR M025         
1 25770U 99031A   25125.84589007 -.00000073  00000+0 -15995-3 0  9992
2 25770  51.9815 257.3582 0002042  96.8264  24.9380 11.22557969134615
GLOBALSTAR M049         
1 25771U 99031B   25124.93600892 -.00000094  00000+0 -10156-2 0  9994
2 25771  51.9878 292.0567 0001952 299.3894  60.6707 11.12112500112615
GLOBALSTAR M047         
1 25772U 99031C   25124.87862296 -.00000073  00000+0 -94531-4 0  9994
2 25772  51.9837 293.2940 0016668 186.0031 174.0577 11.31927819466204
GLOBALSTAR M052         
1 25773U 99031D   25124.83492912 -.00000038  00000+0  92801-3 0  9992
2 25773  51.9896  41.5659 0002823  92.6915 308.2929 11.15059237473675
